INTELSAT 902 (IS-902)   
1 26900U 01039A   26197.47382821 -.00000297  00000+0  00000+0 0  9997
2 26900   6.1880  71.4225 0004205  43.0240 300.3380  1.00272190 90982
INTELSAT 904 (IS-904)   
1 27380U 02007A   26197.09558765 -.00000239  00000+0  00000+0 0  9992
2 27380   6.9902  68.8335 0005387  26.1937 201.8403  1.00270497 52052
DIRECTV 5 (TEMPO 1)     
1 27426U 02023A   26197.60452330 -.00000070  00000+0  00000+0 0  9992
2 27426   4.9511  74.9419 0003143  47.6933 279.3107  1.00271525 88413
INTELSAT 905 (IS-905)   
1 27438U 02027A   26197.74171178  .00000080  00000+0  00000+0 0  9992
2 27438   6.8257  69.4400 0003478  48.1392 306.7924  1.00271751 51658
GALAXY 3C (G-3C)        
1 27445U 02030A   26197.82145247 -.00000165  00000+0  00000+0 0  9996
2 27445   3.8086  77.5916 0001608  32.3649  25.5755  1.00270788 46794
INTELSAT 906 (IS-906)   
1 27513U 02041A   26197.78161382 -.00000001  00000+0  00000+0 0  9996
2 27513   5.8748  72.5542 0003760  26.9486 180.6472  1.00273474 87324
GALAXY 13 (HORIZONS-1)  
1 27954U 03044A   26197.73919845  .00000121  00000+0  00000+0 0  9991
2 27954   1.4929  83.4835 0002124  32.7857 294.3917  1.00271975 46867
INTELSAT 10-02          
1 28358U 04022A   26197.82892022 -.00000021  00000+0  00000+0 0  9994
2 28358   0.0550 253.5568 0000370 344.7769 353.7286  1.00272356 80853
DIRECTV 8               
1 28659U 05019A   26197.74517847  .00000000  00000+0  00000+0 0  9991
2 28659   0.0210  62.9988 0003042  58.9650 321.8277  1.00270403 77369
GALAXY 28 (G-28)        
1 28702U 05022A   26197.83486403 -.00000212  00000+0  00000+0 0  9993
2 28702   3.3722  78.5664 0002512  29.9439  99.6054  1.00271634 52273
GALAXY 16 (G-16)        
1 29236U 06023A   26197.85398552 -.00000137  00000+0  00000+0 0  9993
2 29236   0.0249 155.2480 0002553 318.1279  29.7255  1.00271537 73275
DIRECTV 9S              
1 29494U 06043A   26197.82015247 -.00000125  00000+0  00000+0 0  9992
2 29494   2.4954  80.5453 0004962  31.8266  16.3258  1.00271391 51685
GALAXY 17 (G-17)        
1 31307U 07016B   26197.82335913 -.00000218  00000+0  00000+0 0  9997
2 31307   3.0446  79.5257 0003610  35.1909  31.3175  1.00271492 70109
INTELSAT 11 (IS-11)     
1 32253U 07044B   26197.83928404 -.00000201  00000+0  00000+0 0  9995
2 32253   3.6408  78.3092 0004268 100.1846  53.6942  0.99052640 68746
HORIZONS-2              
1 32388U 07063B   26197.82561249 -.00000265  00000+0  00000+0 0  9994
2 32388   2.6766  80.2603 0003545  16.6797  61.1138  1.00273133 68111
DIRECTV 11              
1 32729U 08013A   26197.84028122 -.00000136  00000+0  00000+0 0  9996
2 32729   0.0072 267.6426 0000145 337.1313 253.2033  1.00271122 45898
GALAXY 18 (G-18)        
1 32951U 08024A   26197.60200997  .00000015  00000+0  00000+0 0  9996
2 32951   0.0137  74.1550 0002825  40.3684 273.6113  1.00270713 46146
GALAXY 19 (G-19)        
1 33376U 08045A   26197.82101912 -.00000149  00000+0  00000+0 0  9991
2 33376   0.0523 244.4441 0002393 241.0410   7.7292  1.00270935 65203
FM-5                    
1 35493U 09034A   26197.82301248 -.00000210  00000+0  00000+0 0  9995
2 35493   0.0370 243.7641 0000713 111.2500 149.7458  1.00271164 46947
INTELSAT 14 (IS-14)     
1 36097U 09064A   26197.83128950 -.00000284  00000+0  00000+0 0  9998
2 36097   0.0166 357.5549 0002297 120.3899  70.9634  1.00272754 60902
INTELSAT 15 (IS-15)     
1 36106U 09067A   26197.76086564 -.00000196  00000+0  00000+0 0  9990
2 36106   0.0175  10.0415 0002127 105.1666 178.4254  1.00272466 41520
DIRECTV 12              
1 36131U 09075A   26197.60599666 -.00000114  00000+0  00000+0 0  9992
2 36131   0.0418 209.1378 0000293   3.4441 197.2818  1.00272634 46842
INTELSAT 16 (IS-16)     
1 36397U 10006A   26197.82509249 -.00000255  00000+0  00000+0 0  9990
2 36397   0.0141  55.5310 0002296  80.3932  19.5451  1.00272180 59953
XM-5                    
1 37185U 10053A   26197.60356998 -.00000033  00000+0  00000+0 0  9999
2 37185   0.0613 264.2736 0001442 329.0003 163.2348  1.00269656 57772
INTELSAT 17 (IS-17)     
1 37238U 10065B   26197.77941676 -.00000012  00000+0  00000+0 0  9999
2 37238   0.0060 106.8614 0002573  21.7839 152.5366  1.00271030 53543
INTELSAT 28 (IS-28)     
1 37392U 11016A   26197.84559152 -.00000236  00000+0  00000+0 0  9997
2 37392   1.8811  82.2607 0003742  40.7092  84.4035  1.00272027 53584
INTELSAT 18 (IS-18)     
1 37834U 11056A   26197.80455237  .00000042  00000+0  00000+0 0  9991
2 37834   0.0410 253.9554 0001755 235.8814 274.4216  1.00271669 54102
INTELSAT 22 (IS-22)     
1 38098U 12011A   26197.85447169 -.00000069  00000+0  00000+0 0  9996
2 38098   0.0164  50.7483 0001846  75.2376 188.4007  1.00271898  7480
INTELSAT 19 (IS-19)     
1 38356U 12030A   26197.80177904 -.00000067  00000+0  00000+0 0  9994
2 38356   0.0193  38.5585 0002853  77.1255 273.5675  1.00271661 50744
INTELSAT 20 (IS-20)     
1 38740U 12043A   26197.85377833 -.00000035  00000+0  00000+0 0  9998
2 38740   0.0117  66.6448 0001498 113.7541 130.1442  1.00271634 51040
INTELSAT 21 (IS-21)     
1 38749U 12045A   26197.82868949 -.00000295  00000+0  00000+0 0  9997
2 38749   0.0490 247.5954 0001593 239.2655  48.1210  1.00272487 50824
INTELSAT 23 (IS-23)     
1 38867U 12057A   26197.82972950 -.00000295  00000+0  00000+0 0  9999
2 38867   0.0191 314.3762 0000709 300.0919 285.8764  1.00263219 50255
FM-6                    
1 39360U 13058A   26197.39350294 -.00000026  00000+0  00000+0 0  9995
2 39360   0.0150  42.5489 0001588 139.8142 137.1641  1.00271034 46361
INTELSAT 30 (IS-30)     
1 40271U 14062A   26197.56572662 -.00000163  00000+0  00000+0 0  9990
2 40271   0.0203  53.9469 0001293 348.4418   0.6250  1.00282075  7087
DIRECTV 14              
1 40333U 14078B   26197.60651666 -.00000136  00000+0  00000+0 0  9993
2 40333   0.0101  43.9278 0000480 317.0813  52.5317  1.00271916 42337
DIRECTV 15              
1 40663U 15026A   26197.60599666 -.00000113  00000+0  00000+0 0  9999
2 40663   0.0230  76.6558 0000264 264.8032  68.2365  1.00268719 40750
SKY MEXICO-1            
1 40664U 15026B   26197.82457248 -.00000245  00000+0  00000+0 0  9999
2 40664   0.0129  61.0331 0002296  72.1021  19.5537  1.00273057 40751
INTELSAT 34 (IS-34)     
1 40874U 15039A   26197.82920949 -.00000296  00000+0  00000+0 0  9995
2 40874   0.0105  25.3018 0000392 349.5333 162.8302  1.00269329 39932
INTELSAT 31 (IS-31)     
1 41581U 16035A   26197.82127912 -.00000161  00000+0  00000+0 0  9998
2 41581   0.0172 233.0255 0001092  63.8050 198.4177  1.00270146 36989
INTELSAT 36 (IS-36)     
1 41747U 16053A   26197.35467045 -.00000035  00000+0  00000+0 0  9994
2 41747   0.0127  38.7567 0002351 300.8444 150.7380  1.00270623 36256
INTELSAT 32E (IS-32E)   
1 41945U 17007B   26197.78794999  .00000000  00000+0  00000+0 0  9993
2 41945   0.0225  58.7860 0000433 299.9397 176.3763  1.00269913 34524
INTELSAT 35E (IS-35E)   
1 42818U 17041A   26197.85114068 -.00000248  00000+0  00000+0 0  9997
2 42818   0.0186  45.6193 0001858  72.1335  88.8239  1.00272989 33115
INTELSAT 37E (IS-37E)   
1 42950U 17059A   26197.84003088 -.00000151  00000+0  00000+0 0  9994
2 42950   0.0152  63.4270 0002580  56.6447  98.9870  1.00272758 32366
AZERSPACE 2 (IS-38)     
1 43632U 18074A   26197.81572586  .00000000  00000+0  00000+0 0  9993
2 43632   0.0216  55.7578 0001389  62.1963 155.4737  1.00270127 28747
HORIZONS-3E             
1 43633U 18074B   26197.80238571 -.00000041  00000+0  00000+0 0  9992
2 43633   0.0390 232.5374 0000748  54.4484 105.4892  1.00272425 28638
AT&T T-16               
1 44333U 19034A   26197.41017067 -.00000126  00000+0  00000+0 0  9993
2 44333   0.0161  73.6901 0000565 259.4193   7.9269  1.00272155 25926
INTELSAT 39 (IS-39)     
1 44476U 19049B   26197.85247833  .00000000  00000+0  00000+0 0  9991
2 44476   0.0220  59.4088 0000561 281.9492 322.1688  1.00270978 25429
GALAXY 30 (G-30)        
1 46114U 20056C   26197.74413846  .00000000  00000+0  00000+0 0  9999
2 46114   0.0213  57.4672 0002193  59.3250 320.6798  1.00270671 21589
GALAXY 33 (G-33)        
1 54026U 22128A   26197.74257846  .00000069  00000+0  00000+0 0  9993
2 54026   0.0135  57.3083 0001838  56.8760 314.7057  1.00270123 14037
GALAXY 34 (G-34)        
1 54027U 22128B   26197.87864095  .00000049  00000+0  00000+0 0  9996
2 54027   0.0108  52.9253 0001394  78.9388 350.1440  1.00271525 14213
GALAXY 31 (G-31)        
1 54243U 22153A   26197.60235662  .00000003  00000+0  00000+0 0  9997
2 54243   0.0153  90.3322 0001035  29.2843 270.6424  1.00271599  7427
GALAXY 32 (G-32)        
1 54244U 22153B   26197.53703721 -.00000185  00000+0  00000+0 0  9998
2 54244   0.0103  55.2860 0001346 349.2681 352.1401  1.00272432 13436
GALAXY 35 (G-35)        
1 54741U 22170A   26197.82179912 -.00000173  00000+0  00000+0 0  9997
2 54741   0.0152  77.2620 0001819  38.8043  21.3120  1.00272253 13195
GALAXY 36 (G-36)        
1 54742U 22170B   26197.82249248 -.00000196  00000+0  00000+0 0  9993
2 54742   0.0157  95.4101 0002552   3.1568  43.1742  1.00271796 13079
GALAXY 37 (G-37)        
1 57493U 23112A   26197.17344941  .00000000  00000+0  00000+0 0  9993
2 57493   0.0184  49.9091 0001823  68.6969 110.8601  1.00271297 10831
